[
    {
        "Altitude(m)": 717837.322209539,
        "Argument of Periapsis(deg)": 0.004556048474650827,
        "Eccentricity": 0.0,
        "Inclination(deg)": 45.0,
        "Latitude(deg)": -45.0437260363985,
        "Longitude(deg)": 39.684778604361185,
        "Mean Anomaly(deg)": -93.5685133410077,
        "RAAN(deg)": 234.99569922341675,
        "Satellite Name": "Constellation 1 1050",
        "Satellite Number": 1050,
        "Semi-Major Axis(m)": 7083131.272910544,
        "Time(s)": 76
    },
    {
        "Altitude(m)": 717838.8472303883,
        "Argument of Periapsis(deg)": 0.004615996480896233,
        "Eccentricity": 0.0,
        "Inclination(deg)": 45.0,
        "Latitude(deg)": -45.047449493662235,
        "Longitude(deg)": 39.76598437642565,
        "Mean Anomaly(deg)": -93.50781220075774,
        "RAAN(deg)": 234.99564263425114,
        "Satellite Name": "Constellation 1 1050",
        "Satellite Number": 1050,
        "Semi-Major Axis(m)": 7083131.272910544,
        "Time(s)": 77
    },
    {
        "Altitude(m)": 717840.3460058484,
        "Argument of Periapsis(deg)": 0.004675944487141638,
        "Eccentricity": 0.0,
        "Inclination(deg)": 45.0,
        "Latitude(deg)": -45.05110923499815,
        "Longitude(deg)": 39.84720110052571,
        "Mean Anomaly(deg)": -93.44711106050795,
        "RAAN(deg)": 234.99558604508556,
        "Satellite Name": "Constellation 1 1050",
        "Satellite Number": 1050,
        "Semi-Major Axis(m)": 7083131.272910544,
        "Time(s)": 78
    },
    {
        "Altitude(m)": 717841.8185303535,
        "Argument of Periapsis(deg)": 0.004735892493387044,
        "Eccentricity": 0.0,
        "Inclination(deg)": 45.0,
        "Latitude(deg)": -45.05470524433932,
        "Longitude(deg)": 39.92842859036537,
        "Mean Anomaly(deg)": -93.386409920258,
        "RAAN(deg)": 234.99552945592,
        "Satellite Name": "Constellation 1 1050",
        "Satellite Number": 1050,
        "Semi-Major Axis(m)": 7083131.272910544,
        "Time(s)": 79
    },
    {
        "Altitude(m)": 717843.2647984532,
        "Argument of Periapsis(deg)": 0.004795840499632449,
        "Eccentricity": 0.0,
        "Inclination(deg)": 45.0,
        "Latitude(deg)": -45.05823750589361,
        "Longitude(deg)": 40.00966665945759,
        "Mean Anomaly(deg)": -93.32570878000807,
        "RAAN(deg)": 234.99547286675445,
        "Satellite Name": "Constellation 1 1050",
        "Satellite Number": 1050,
        "Semi-Major Axis(m)": 7083131.272910544,
        "Time(s)": 80
    },
    {
        "Altitude(m)": 717844.6848047796,
        "Argument of Periapsis(deg)": 0.004855788505877855,
        "Eccentricity": 0.0,
        "Inclination(deg)": 45.0,
        "Latitude(deg)": -45.06170600414401,
        "Longitude(deg)": 40.090915121128646,
        "Mean Anomaly(deg)": -93.2650076397581,
        "RAAN(deg)": 234.99541627758884,
        "Satellite Name": "Constellation 1 1050",
        "Satellite Number": 1050,
        "Semi-Major Axis(m)": 7083131.272910544,
        "Time(s)": 81
    },
    {
        "Altitude(m)": 717846.0785440739,
        "Argument of Periapsis(deg)": 0.00491573651212326,
        "Eccentricity": 0.0,
        "Inclination(deg)": 45.0,
        "Latitude(deg)": -45.065110723849195,
        "Longitude(deg)": 40.17217362042367,
        "Mean Anomaly(deg)": -93.20430649950833,
        "RAAN(deg)": 234.9953596884233,
        "Satellite Name": "Constellation 1 1050",
        "Satellite Number": 1050,
        "Semi-Major Axis(m)": 7083131.272910544,
        "Time(s)": 82
    },
    {
        "Altitude(m)": 717847.4460111663,
        "Argument of Periapsis(deg)": 0.004975684518368666,
        "Eccentricity": 0.0,
        "Inclination(deg)": 45.0,
        "Latitude(deg)": -45.06845165004289,
        "Longitude(deg)": 40.25344230649869,
        "Mean Anomaly(deg)": -93.14360535925834,
        "RAAN(deg)": 234.9953030992577,
        "Satellite Name": "Constellation 1 1050",
        "Satellite Number": 1050,
        "Semi-Major Axis(m)": 7083131.272910544,
        "Time(s)": 83
    },
    {
        "Altitude(m)": 717848.7872009898,
        "Argument of Periapsis(deg)": 0.005035632524614072,
        "Eccentricity": 0.0,
        "Inclination(deg)": 45.0,
        "Latitude(deg)": -45.07172876803564,
        "Longitude(deg)": 40.33472082404091,
        "Mean Anomaly(deg)": -93.08290421900837,
        "RAAN(deg)": 234.99524651009216,
        "Satellite Name": "Constellation 1 1050",
        "Satellite Number": 1050,
        "Semi-Major Axis(m)": 7083131.272910544,
        "Time(s)": 84
    },
    {
        "Altitude(m)": 717850.1021085714,
        "Argument of Periapsis(deg)": 0.0050955805308594785,
        "Eccentricity": 0.0,
        "Inclination(deg)": 45.0,
        "Latitude(deg)": -45.07494206341411,
        "Longitude(deg)": 40.416008985660255,
        "Mean Anomaly(deg)": -93.02220307875864,
        "RAAN(deg)": 234.9951899209266,
        "Satellite Name": "Constellation 1 1050",
        "Satellite Number": 1050,
        "Semi-Major Axis(m)": 7083131.272910544,
        "Time(s)": 85
    },
    {
        "Altitude(m)": 717851.3907290337,
        "Argument of Periapsis(deg)": 0.005155528537104883,
        "Eccentricity": 0.0,
        "Inclination(deg)": 45.0,
        "Latitude(deg)": -45.07809152204172,
        "Longitude(deg)": 40.49730660379666,
        "Mean Anomaly(deg)": -92.96150193850869,
        "RAAN(deg)": 234.995133331761,
        "Satellite Name": "Constellation 1 1050",
        "Satellite Number": 1050,
        "Semi-Major Axis(m)": 7083131.272910544,
        "Time(s)": 86
    },
    {
        "Altitude(m)": 717852.6530575948,
        "Argument of Periapsis(deg)": 0.0052154765433502885,
        "Eccentricity": 0.0,
        "Inclination(deg)": 45.0,
        "Latitude(deg)": -45.08117713005879,
        "Longitude(deg)": 40.5786134907215,
        "Mean Anomaly(deg)": -92.90080079825876,
        "RAAN(deg)": 234.99507674259544,
        "Satellite Name": "Constellation 1 1050",
        "Satellite Number": 1050,
        "Semi-Major Axis(m)": 7083131.272910544,
        "Time(s)": 87
    },
    {
        "Altitude(m)": 717853.8890895813,
        "Argument of Periapsis(deg)": 0.005275424549595694,
        "Eccentricity": 0.0,
        "Inclination(deg)": 45.0,
        "Latitude(deg)": -45.084198873883,
        "Longitude(deg)": 40.65992945854184,
        "Mean Anomaly(deg)": -92.84009965800884,
        "RAAN(deg)": 234.99502015342986,
        "Satellite Name": "Constellation 1 1050",
        "Satellite Number": 1050,
        "Semi-Major Axis(m)": 7083131.272910544,
        "Time(s)": 88
    },
    {
        "Altitude(m)": 717855.0988203988,
        "Argument of Periapsis(deg)": 0.0053353725558411,
        "Eccentricity": 0.0,
        "Inclination(deg)": 45.0,
        "Latitude(deg)": -45.087156740209785,
        "Longitude(deg)": 40.7412541511071,
        "Mean Anomaly(deg)": -92.77939851775899,
        "RAAN(deg)": 234.9949635642643,
        "Satellite Name": "Constellation 1 1050",
        "Satellite Number": 1050,
        "Semi-Major Axis(m)": 7083131.272910544,
        "Time(s)": 89
    },
    {
        "Altitude(m)": 717856.2822455644,
        "Argument of Periapsis(deg)": 0.005395320562086505,
        "Eccentricity": 0.0,
        "Inclination(deg)": 45.0,
        "Latitude(deg)": -45.090050716011746,
        "Longitude(deg)": 40.82258771639962,
        "Mean Anomaly(deg)": -92.71869737750905,
        "RAAN(deg)": 234.9949069750987,
        "Satellite Name": "Constellation 1 1050",
        "Satellite Number": 1050,
        "Semi-Major Axis(m)": 7083131.272910544,
        "Time(s)": 90
    },
    {
        "Altitude(m)": 717857.4393606894,
        "Argument of Periapsis(deg)": 0.00545526856833191,
        "Eccentricity": 0.0,
        "Inclination(deg)": 45.0,
        "Latitude(deg)": -45.092880788540306,
        "Longitude(deg)": 40.903929797956074,
        "Mean Anomaly(deg)": -92.65799623725907,
        "RAAN(deg)": 234.99485038593315,
        "Satellite Name": "Constellation 1 1050",
        "Satellite Number": 1050,
        "Semi-Major Axis(m)": 7083131.272910544,
        "Time(s)": 91
    },
    {
        "Altitude(m)": 717858.5701614773,
        "Argument of Periapsis(deg)": 0.005515216574577317,
        "Eccentricity": 0.0,
        "Inclination(deg)": 45.0,
        "Latitude(deg)": -45.095646945325015,
        "Longitude(deg)": 40.985280207258626,
        "Mean Anomaly(deg)": -92.59729509700934,
        "RAAN(deg)": 234.9947937967676,
        "Satellite Name": "Constellation 1 1050",
        "Satellite Number": 1050,
        "Semi-Major Axis(m)": 7083131.272910544,
        "Time(s)": 92
    },
    {
        "Altitude(m)": 717859.6746437332,
        "Argument of Periapsis(deg)": 0.005575164580822722,
        "Eccentricity": 0.0,
        "Inclination(deg)": 45.0,
        "Latitude(deg)": -45.09834917417415,
        "Longitude(deg)": 41.06663875564238,
        "Mean Anomaly(deg)": -92.53659395675939,
        "RAAN(deg)": 234.99473720760204,
        "Satellite Name": "Constellation 1 1050",
        "Satellite Number": 1050,
        "Semi-Major Axis(m)": 7083131.272910544,
        "Time(s)": 93
    },
    {
        "Altitude(m)": 717860.7528033592,
        "Argument of Periapsis(deg)": 0.005635112587068129,
        "Eccentricity": 0.0,
        "Inclination(deg)": 45.0,
        "Latitude(deg)": -45.1009874631748,
        "Longitude(deg)": 41.14800525429676,
        "Mean Anomaly(deg)": -92.47589281650949,
        "RAAN(deg)": 234.99468061843646,
        "Satellite Name": "Constellation 1 1050",
        "Satellite Number": 1050,
        "Semi-Major Axis(m)": 7083131.272910544,
        "Time(s)": 94
    }
]